start=new Date('2022-10-23T00:00:00.000Z').valueOf();
sats=[{"APOAPSIS":"343.090","CENTER_NAME":"EARTH","OBJECT_NAME":"STARLINK-5118","PERIAPSIS":"340.785","MEAN_MOTION":"15.75947670","MEAN_ANOMALY":"324.7541","NORAD_CAT_ID":"53991","FILE":"3629797","REF_FRAME":"TEME","EPOCH":"2022-10-22T22:00:00.999936","RCS_SIZE":"LARGE","REV_AT_EPOCH":"130","GP_ID":"215928993","COUNTRY_CODE":"US","SITE":"AFWTR","DECAY_DATE":null,"OBJECT_TYPE":"PAYLOAD","TIME_SYSTEM":"UTC","RA_OF_ASC_NODE":"7.0169","ECCENTRICITY":"0.00017150","CLASSIFICATION_TYPE":"U","TLE_LINE2":"2 53991  53.2179   7.0169 0001715  26.3556 324.7541 15.75947670  1301","BSTAR":"-0.00367750000000","SEMIMAJOR_AXIS":"6720.073","ELEMENT_SET_NO":"999","TLE_LINE1":"1 53991U 22125AD  22295.91667824 -.00546263  00000-0 -36775-2 0  9990","PERIOD":"91.374","EPHEMERIS_TYPE":"0","INCLINATION":"53.2179","ARG_OF_PERICENTER":"26.3556","LAUNCH_DATE":"2022-10-05","MEAN_ELEMENT_THEORY":"SGP4","MEAN_MOTION_DOT":"-0.00546263","OBJECT_ID":"2022-125AD","MEAN_MOTION_DDOT":"0.0000000000000"},{"CENTER_NAME":"EARTH","APOAPSIS":"351.233","REF_FRAME":"TEME","MEAN_ANOMALY":"359.4629","MEAN_MOTION":"15.73275887","PERIAPSIS":"347.855","OBJECT_NAME":"STARLINK-5108","FILE":"3629797","NORAD_CAT_ID":"53992","GP_ID":"215928666","COUNTRY_CODE":"US","OBJECT_TYPE":"PAYLOAD","DECAY_DATE":null,"SITE":"AFWTR","EPOCH":"2022-10-22T22:00:00.999936","REV_AT_EPOCH":"130","RCS_SIZE":"LARGE","BSTAR":"-0.00048918000000","TLE_LINE2":"2 53992  53.2187   7.6907 0002511  20.3091 359.4629 15.73275887  1304","RA_OF_ASC_NODE":"7.6907","TIME_SYSTEM":"UTC","CLASSIFICATION_TYPE":"U","ECCENTRICITY":"0.00025110","PERIOD":"91.529","EPHEMERIS_TYPE":"0","SEMIMAJOR_AXIS":"6727.679","ELEMENT_SET_NO":"999","TLE_LINE1":"1 53992U 22125AE  22295.91667824 -.00068949  00000-0 -48918-3 0  9994","INCLINATION":"53.2187","LAUNCH_DATE":"2022-10-05","ARG_OF_PERICENTER":"20.3091","OBJECT_ID":"2022-125AE","MEAN_MOTION_DOT":"-0.00068949","MEAN_ELEMENT_THEORY":"SGP4","MEAN_MOTION_DDOT":"0.0000000000000"},{"INCLINATION":"53.2195","LAUNCH_DATE":"2022-10-05","ARG_OF_PERICENTER":"19.9396","SEMIMAJOR_AXIS":"6727.813","TLE_LINE1":"1 53993U 22125AF  22295.91667824 -.00004165  00000-0 -25223-4 0  9990","ELEMENT_SET_NO":"999","PERIOD":"91.532","EPHEMERIS_TYPE":"0","MEAN_MOTION_DDOT":"0.0000000000000","MEAN_ELEMENT_THEORY":"SGP4","MEAN_MOTION_DOT":"-0.00004165","OBJECT_ID":"2022-125AF","MEAN_MOTION":"15.73228704","MEAN_ANOMALY":"358.0757","OBJECT_NAME":"STARLINK-5121","PERIAPSIS":"348.161","FILE":"3629797","NORAD_CAT_ID":"53993","REF_FRAME":"TEME","APOAPSIS":"351.196","CENTER_NAME":"EARTH","RA_OF_ASC_NODE":"7.6932","TIME_SYSTEM":"UTC","CLASSIFICATION_TYPE":"U","ECCENTRICITY":"0.00022560","BSTAR":"-0.00002522300000","TLE_LINE2":"2 53993  53.2195   7.6932 0002256  19.9396 358.0757 15.73228704  1303","EPOCH":"2022-10-22T22:00:00.999936","RCS_SIZE":"LARGE","REV_AT_EPOCH":"130","COUNTRY_CODE":"US","GP_ID":"215928411","DECAY_DATE":null,"OBJECT_TYPE":"PAYLOAD","SITE":"AFWTR"},{"REF_FRAME":"TEME","FILE":"3629797","NORAD_CAT_ID":"53994","MEAN_ANOMALY":"5.2607","MEAN_MOTION":"15.73260656","OBJECT_NAME":"STARLINK-5125","PERIAPSIS":"347.869","APOAPSIS":"351.306","CENTER_NAME":"EARTH","BSTAR":"-0.00038651000000","TLE_LINE2":"2 53994  53.2186   7.6854 0002554  16.9269   5.2607 15.73260656  1301","CLASSIFICATION_TYPE":"U","ECCENTRICITY":"0.00025540","TIME_SYSTEM":"UTC","RA_OF_ASC_NODE":"7.6854","DECAY_DATE":null,"OBJECT_TYPE":"PAYLOAD","SITE":"AFWTR","GP_ID":"215929390","COUNTRY_CODE":"US","REV_AT_EPOCH":"130","RCS_SIZE":"LARGE","EPOCH":"2022-10-22T22:00:00.999936","LAUNCH_DATE":"2022-10-05","ARG_OF_PERICENTER":"16.9269","INCLINATION":"53.2186","EPHEMERIS_TYPE":"0","PERIOD":"91.530","ELEMENT_SET_NO":"999","TLE_LINE1":"1 53994U 22125AG  22295.91667824 -.00054665  00000-0 -38651-3 0  9999","SEMIMAJOR_AXIS":"6727.722","MEAN_MOTION_DDOT":"0.0000000000000","OBJECT_ID":"2022-125AG","MEAN_MOTION_DOT":"-0.00054665","MEAN_ELEMENT_THEORY":"SGP4"},{"DECAY_DATE":null,"OBJECT_TYPE":"PAYLOAD","SITE":"AFWTR","COUNTRY_CODE":"US","GP_ID":"215929227","RCS_SIZE":"LARGE","REV_AT_EPOCH":"130","EPOCH":"2022-10-22T22:00:00.999936","BSTAR":"-0.00017800000000","TLE_LINE2":"2 53995  53.2184   7.6885 0002861  14.2511   6.1021 15.73261555  1305","CLASSIFICATION_TYPE":"U","ECCENTRICITY":"0.00028610","TIME_SYSTEM":"UTC","RA_OF_ASC_NODE":"7.6885","APOAPSIS":"351.509","CENTER_NAME":"EARTH","REF_FRAME":"TEME","FILE":"3629797","NORAD_CAT_ID":"53995","MEAN_MOTION":"15.73261555","MEAN_ANOMALY":"6.1021","OBJECT_NAME":"STARLINK-5097","PERIAPSIS":"347.660","OBJECT_ID":"2022-125AH","MEAN_MOTION_DOT":"-0.00025599","MEAN_ELEMENT_THEORY":"SGP4","MEAN_MOTION_DDOT":"0.0000000000000","EPHEMERIS_TYPE":"0","PERIOD":"91.530","ELEMENT_SET_NO":"999","TLE_LINE1":"1 53995U 22125AH  22295.91667824 -.00025599  00000-0 -17800-3 0  9997","SEMIMAJOR_AXIS":"6727.720","LAUNCH_DATE":"2022-10-05","ARG_OF_PERICENTER":"14.2511","INCLINATION":"53.2184"},{"TLE_LINE2":"2 53996  53.2190   7.6847 0002663  25.0580 357.7440 15.73209453  1306","BSTAR":"0.00024060000000","RA_OF_ASC_NODE":"7.6847","TIME_SYSTEM":"UTC","ECCENTRICITY":"0.00026630","CLASSIFICATION_TYPE":"U","COUNTRY_CODE":"US","GP_ID":"215928248","DECAY_DATE":null,"SITE":"AFWTR","OBJECT_TYPE":"PAYLOAD","EPOCH":"2022-10-22T22:00:00.999936","RCS_SIZE":"LARGE","REV_AT_EPOCH":"130","REF_FRAME":"TEME","OBJECT_NAME":"STARLINK-5131","PERIAPSIS":"347.942","MEAN_ANOMALY":"357.7440","MEAN_MOTION":"15.73209453","NORAD_CAT_ID":"53996","FILE":"3629797","CENTER_NAME":"EARTH","APOAPSIS":"351.525","MEAN_MOTION_DDOT":"0.0000000000000","OBJECT_ID":"2022-125AJ","MEAN_MOTION_DOT":"0.00033297","MEAN_ELEMENT_THEORY":"SGP4","INCLINATION":"53.2190","ARG_OF_PERICENTER":"25.0580","LAUNCH_DATE":"2022-10-05","PERIOD":"91.533","EPHEMERIS_TYPE":"0","SEMIMAJOR_AXIS":"6727.868","TLE_LINE1":"1 53996U 22125AJ  22295.91667824  .00033297  00000-0  24060-3 0  9996","ELEMENT_SET_NO":"999"},{"MEAN_MOTION_DDOT":"0.0000000000000","MEAN_MOTION_DOT":"0.00027528","OBJECT_ID":"2022-125AK","MEAN_ELEMENT_THEORY":"SGP4","INCLINATION":"53.2184","LAUNCH_DATE":"2022-10-05","ARG_OF_PERICENTER":"18.4346","PERIOD":"91.530","EPHEMERIS_TYPE":"0","SEMIMAJOR_AXIS":"6727.760","TLE_LINE1":"1 53997U 22125AK  22295.91667824  .00027528  00000-0  19950-3 0  9999","ELEMENT_SET_NO":"999","BSTAR":"0.00019950000000","TLE_LINE2":"2 53997  53.2184   7.6881 0002360  18.4346   2.5166 15.73247443  1309","RA_OF_ASC_NODE":"7.6881","TIME_SYSTEM":"UTC","CLASSIFICATION_TYPE":"U","ECCENTRICITY":"0.00023600","COUNTRY_CODE":"US","GP_ID":"215928830","DECAY_DATE":null,"SITE":"AFWTR","OBJECT_TYPE":"PAYLOAD","EPOCH":"2022-10-22T22:00:00.999936","REV_AT_EPOCH":"130","RCS_SIZE":"LARGE","REF_FRAME":"TEME","MEAN_ANOMALY":"2.5166","MEAN_MOTION":"15.73247443","OBJECT_NAME":"STARLINK-5130","PERIAPSIS":"348.037","FILE":"3629797","NORAD_CAT_ID":"53997","APOAPSIS":"351.213","CENTER_NAME":"EARTH"},{"MEAN_MOTION_DDOT":"0.0000000000000","MEAN_MOTION_DOT":"-0.00068411","OBJECT_ID":"2022-125AL","MEAN_ELEMENT_THEORY":"SGP4","ARG_OF_PERICENTER":"16.4058","LAUNCH_DATE":"2022-10-05","INCLINATION":"53.2183","EPHEMERIS_TYPE":"0","PERIOD":"91.529","ELEMENT_SET_NO":"999","TLE_LINE1":"1 53998U 22125AL  22295.91667824 -.00068411  00000-0 -48542-3 0  9997","SEMIMAJOR_AXIS":"6727.697","TLE_LINE2":"2 53998  53.2183   7.6823 0002605  16.4058   7.5176 15.73269603  1303","BSTAR":"-0.00048542000000","ECCENTRICITY":"0.00026050","CLASSIFICATION_TYPE":"U","TIME_SYSTEM":"UTC","RA_OF_ASC_NODE":"7.6823","DECAY_DATE":null,"SITE":"AFWTR","OBJECT_TYPE":"PAYLOAD","GP_ID":"215929157","COUNTRY_CODE":"US","REV_AT_EPOCH":"130","RCS_SIZE":"LARGE","EPOCH":"2022-10-22T22:00:00.999936","REF_FRAME":"TEME","NORAD_CAT_ID":"53998","FILE":"3629797","OBJECT_NAME":"STARLINK-5128","PERIAPSIS":"347.809","MEAN_ANOMALY":"7.5176","MEAN_MOTION":"15.73269603","CENTER_NAME":"EARTH","APOAPSIS":"351.314"},{"REF_FRAME":"TEME","MEAN_MOTION":"15.73266055","MEAN_ANOMALY":"4.0101","PERIAPSIS":"347.909","OBJECT_NAME":"STARLINK-5079","FILE":"3629797","NORAD_CAT_ID":"53999","CENTER_NAME":"EARTH","APOAPSIS":"351.235","BSTAR":"-0.00035886000000","TLE_LINE2":"2 53999  53.2189   7.6868 0002472  17.5423   4.0101 15.73266055  1307","RA_OF_ASC_NODE":"7.6868","TIME_SYSTEM":"UTC","CLASSIFICATION_TYPE":"U","ECCENTRICITY":"0.00024720","COUNTRY_CODE":"US","GP_ID":"215928994","OBJECT_TYPE":"PAYLOAD","DECAY_DATE":null,"SITE":"AFWTR","EPOCH":"2022-10-22T22:00:00.999936","RCS_SIZE":"LARGE","REV_AT_EPOCH":"130","INCLINATION":"53.2189","LAUNCH_DATE":"2022-10-05","ARG_OF_PERICENTER":"17.5423","PERIOD":"91.529","EPHEMERIS_TYPE":"0","SEMIMAJOR_AXIS":"6727.707","ELEMENT_SET_NO":"999","TLE_LINE1":"1 53999U 22125AM  22295.91667824 -.00050832  00000-0 -35886-3 0  9993","MEAN_MOTION_DDOT":"0.0000000000000","OBJECT_ID":"2022-125AM","MEAN_MOTION_DOT":"-0.00050832","MEAN_ELEMENT_THEORY":"SGP4"},{"MEAN_ELEMENT_THEORY":"SGP4","MEAN_MOTION_DOT":"-0.00074449","OBJECT_ID":"2022-125AN","MEAN_MOTION_DDOT":"0.0000000000000","SEMIMAJOR_AXIS":"6727.742","ELEMENT_SET_NO":"999","TLE_LINE1":"1 54000U 22125AN  22295.91667824 -.00074449  00000-0 -52942-3 0  9999","PERIOD":"91.530","EPHEMERIS_TYPE":"0","INCLINATION":"53.2191","ARG_OF_PERICENTER":"23.5003","LAUNCH_DATE":"2022-10-05","EPOCH":"2022-10-22T22:00:00.999936","RCS_SIZE":"LARGE","REV_AT_EPOCH":"130","GP_ID":"215928667","COUNTRY_CODE":"US","DECAY_DATE":null,"OBJECT_TYPE":"PAYLOAD","SITE":"AFWTR","RA_OF_ASC_NODE":"7.6811","TIME_SYSTEM":"UTC","ECCENTRICITY":"0.00023020","CLASSIFICATION_TYPE":"U","TLE_LINE2":"2 54000  53.2191   7.6811 0002302  23.5003   1.0934 15.73253886  1304","BSTAR":"-0.00052942000000","APOAPSIS":"351.155","CENTER_NAME":"EARTH","PERIAPSIS":"348.058","OBJECT_NAME":"STARLINK-5088","MEAN_MOTION":"15.73253886","MEAN_ANOMALY":"1.0934","NORAD_CAT_ID":"54000","FILE":"3629797","REF_FRAME":"TEME"}];
